[{"OBJECT_NAME":"STARLINK-30875","OBJECT_ID":"2023-170U","EPOCH":"2026-03-09T08:56:08.040192","MEAN_MOTION":15.26737349,"ECCENTRICITY":3.542e-5,"INCLINATION":42.9974,"RA_OF_ASC_NODE":195.7665,"ARG_OF_PERICENTER":217.8694,"MEAN_ANOMALY":142.2133,"EPHEMERIS_TYPE":0,"CLASSIFICATION_TYPE":"U","NORAD_CAT_ID":58224,"ELEMENT_SET_NO":999,"REV_AT_EPOCH":13025,"BSTAR":1.4946549e-5,"MEAN_MOTION_DOT":1.42e-6,"MEAN_MOTION_DDOT":0},{"OBJECT_NAME":"CZ-6A R\/B","OBJECT_ID":"2023-168B","EPOCH":"2026-03-09T21:13:08.722272","MEAN_MOTION":15.16100791,"ECCENTRICITY":0.00607667,"INCLINATION":97.7542,"RA_OF_ASC_NODE":104.7688,"ARG_OF_PERICENTER":339.2379,"MEAN_ANOMALY":20.6386,"EPHEMERIS_TYPE":0,"CLASSIFICATION_TYPE":"U","NORAD_CAT_ID":58200,"ELEMENT_SET_NO":999,"REV_AT_EPOCH":12979,"BSTAR":0.00029693841,"MEAN_MOTION_DOT":5.919e-5,"MEAN_MOTION_DDOT":0}]
